{"administrativeScheme":"地级行政区","arcs":[[[116,39.5000200002],[117.0000300003,39.5000200002],[117.0000300003,40.5],[116,40.5],[116,39.5000200002]],[[121.0000300003,31],[122,31],[122,31.80000300003],[121.0000300003,31.80000300003],[121.0000300003,31]]],"attribution":"© Overture Maps Foundation contributors; data available under ODbL 1.0","bbox":[116,31,122,40.5],"boundaryVersion":"2026-08-16-fixture","countryCode":"CN","objects":{"areas":{"geometries":[{"arcs":[[[0]]],"properties":{"adminLevel":"prefecture","aliases":["北京","Peking"],"areaId":"CN:overture:gers-cn-beijing","centroid":[116.5,40],"countryCode":"CN","nameLocal":"Beijing","nameZh":"北京市","sourceId":"gers-cn-beijing"},"type":"MultiPolygon"},{"arcs":[[1]],"properties":{"adminLevel":"prefecture","aliases":["沪","<上海 & 海上>"],"areaId":"CN:overture:gers-cn-shanghai","centroid":[121.5,31.4],"countryCode":"CN","nameLocal":"上海市","nameZh":"上海市","sourceId":"gers-cn-shanghai"},"type":"Polygon"}],"type":"GeometryCollection"}},"schemaVersion":1,"source":"overture","type":"Topology"}
