{"administrativeScheme":"县及独立市等同行政区","arcs":[[[-77.339999399994,38.829998299983004],[-77.27000270002699,38.829998299983004],[-77.27000270002699,38.879998799988],[-77.339999399994,38.879998799988],[-77.339999399994,38.829998299983004]],[[-77.6,38.6],[-77,38.6],[-77,39],[-77.6,39],[-77.6,38.6]]],"attribution":"© Overture Maps Foundation contributors; data available under ODbL 1.0","bbox":[-77.6,38.6,-77,39],"boundaryVersion":"2026-08-16-fixture","countryCode":"US","objects":{"areas":{"geometries":[{"arcs":[[0]],"properties":{"adminLevel":"independent-city","aliases":[],"areaId":"US:overture:gers-us-fairfax-city","centroid":[-77.305,38.855],"countryCode":"US","nameLocal":"Fairfax","nameZh":"费尔法克斯","sourceId":"gers-us-fairfax-city"},"type":"Polygon"},{"arcs":[[1]],"properties":{"adminLevel":"county","aliases":["Fairfax"],"areaId":"US:overture:gers-us-fairfax-county","centroid":[-77.3,38.8],"countryCode":"US","nameLocal":"Fairfax County","nameZh":"费尔法克斯县","sourceId":"gers-us-fairfax-county"},"type":"Polygon"}],"type":"GeometryCollection"}},"schemaVersion":1,"source":"overture","type":"Topology"}
